NORAD_CAT_ID,OBJECT_NAME,OBJECT_TYPE,EPOCH,MEAN_MOTION,ECCENTRICITY,INCLINATION,RA_OF_ASC_NODE,ARG_OF_PERICENTER,MEAN_ANOMALY,BSTAR,MEAN_MOTION_DOT,MEAN_MOTION_DDOT,TLE_LINE0,TLE_LINE1,TLE_LINE2,SEMIMAJOR_AXIS,PERIOD,APOGEE,PERIGEE,DECAYED
53728.0,STARLINK-4640,PAYLOAD,2024-02-15 08:05:48,15.08839499,0.0001521,53.2191,36.0059,93.9933,266.1233,6.9824e-05,8.23e-06,0.0,0 STARLINK-4640,1 53728U 22107AE  24046.33736928  .00000823  00000-0  69824-4 0  9990,2 53728  53.2191  36.0059 0001521  93.9933 266.1233 15.08839499 80823,6917.882,95.438,540.799,538.695,0.0
53728.0,STARLINK-4640,PAYLOAD,2024-02-15 16:02:44,15.08838035,0.0001609,53.219,34.5187,92.864,267.2536,6.0403e-05,6.73e-06,0.0,0 STARLINK-4640,1 53728U 22107AE  24046.66857138  .00000673  00000-0  60403-4 0  9990,2 53728  53.2190  34.5187 0001609  92.8640 267.2536 15.08838035 80875,6917.886,95.438,540.864,538.638,0.0
53728.0,STARLINK-4640,PAYLOAD,2024-02-16 04:45:50,15.0883397,0.0001634,53.2188,32.1393,98.3562,261.7616,3.5465e-05,2.76e-06,0.0,0 STARLINK-4640,1 53728U 22107AE  24047.19849677  .00000276  00000-0  35465-4 0  9997,2 53728  53.2188  32.1393 0001634  98.3562 261.7616 15.08833970 80351,6917.899,95.438,540.894,538.633,0.0
53728.0,STARLINK-4640,PAYLOAD,2024-02-16 09:31:59,15.08840611,0.0001711,53.2198,31.2451,82.6076,277.5111,8.2054e-05,1.018e-05,0.0,0 STARLINK-4640,1 53728U 22107AE  24047.39721167  .00001018  00000-0  82054-4 0  9993,2 53728  53.2198  31.2451 0001711  82.6076 277.5111 15.08840611 80983,6917.879,95.438,540.927,538.56,0.0
53728.0,STARLINK-4640,PAYLOAD,2024-02-16 22:15:04,15.08834057,0.0001557,53.2188,28.8659,98.0846,262.0322,7.7769e-05,9.5e-06,0.0,0 STARLINK-4640,1 53728U 22107AE  24047.92713559  .00000950  00000-0  77769-4 0  9999,2 53728  53.2188  28.8659 0001557  98.0846 262.0322 15.08834057 81068,6917.899,95.438,540.841,538.686,0.0
53728.0,STARLINK-4640,PAYLOAD,2024-02-17 07:47:22,15.08848821,0.0001457,53.2178,27.0813,91.7071,268.4088,8.6656e-05,1.092e-05,0.0,0 STARLINK-4640,1 53728U 22107AE  24048.32456715  .00001092  00000-0  86656-4 0  9995,2 53728  53.2178  27.0813 0001457  91.7071 268.4088 15.08848821 81129,6917.853,95.437,540.726,538.71,0.0
53728.0,STARLINK-4640,PAYLOAD,2024-02-17 15:44:19,15.08836823,0.0001761,53.2191,25.597,82.2474,277.8719,9.1933e-06,-1.42e-06,0.0,0 STARLINK-4640,1 53728U 22107AE  24048.65577855 -.00000142  00000-0  91933-5 0  9991,2 53728  53.2191  25.5970 0001761  82.2474 277.8719 15.08836823 80573,6917.89,95.438,540.973,538.537,0.0
53728.0,STARLINK-4640,PAYLOAD,2024-02-18 04:27:23,15.08844628,0.0001642,53.2192,23.2153,88.453,271.665,2.8482e-05,1.65e-06,0.0,0 STARLINK-4640,1 53728U 22107AE  24049.18569333  .00000165  00000-0  28482-4 0  9994,2 53728  53.2192  23.2153 0001642  88.4530 271.6650 15.08844628 80658,6917.866,95.437,540.867,538.595,0.0
53728.0,STARLINK-4640,PAYLOAD,2024-02-18 21:56:38,15.08843669,0.0001876,53.2199,19.9495,72.2813,287.8384,0.00011923,1.61e-05,0.0,0 STARLINK-4640,1 53728U 22107AE  24049.91433090  .00001610  00000-0  11923-3 0  9992,2 53728  53.2199  19.9495 0001876  72.2813 287.8384 15.08843669 81366,6917.869,95.437,541.032,538.436,0.0
53728.0,STARLINK-4640,PAYLOAD,2024-02-19 07:28:56,15.08855915,0.0001565,53.2189,18.1599,97.9802,262.1368,8.8151e-05,1.116e-05,0.0,0 STARLINK-4640,1 53728U 22107AE  24050.31176077  .00001116  00000-0  88151-4 0  9996,2 53728  53.2189  18.1599 0001565  97.9802 262.1368 15.08855915 80823,6917.832,95.437,540.779,538.614,0.0
53728.0,STARLINK-4640,PAYLOAD,2024-02-19 15:25:53,15.08839117,0.000169,53.2194,16.6747,80.3623,279.756,-7.7162e-05,-1.516e-05,0.0,0 STARLINK-4640,1 53728U 22107AE  24050.64297612 -.00001516  00000-0 -77162-4 0  9997,2 53728  53.2194  16.6747 0001690  80.3623 279.7560 15.08839117 80872,6917.883,95.438,540.917,538.579,0.0
53728.0,STARLINK-4640,PAYLOAD,2024-02-19 21:47:26,15.08831958,0.0002103,53.2207,15.4877,76.3651,283.7576,-2.8611e-05,-7.43e-06,0.0,0 STARLINK-4640,1 53728U 22107AE  24050.90794275 -.00000743  00000-0 -28611-4 0  9999,2 53728  53.2207  15.4877 0002103  76.3651 283.7576 15.08831958 81513,6917.905,95.438,541.225,538.315,0.0
53728.0,STARLINK-4640,PAYLOAD,2024-02-20 04:08:58,15.08833033,0.0001772,53.2198,14.2978,82.7213,277.3981,-1.4325e-05,-5.16e-06,0.0,0 STARLINK-4640,1 53728U 22107AE  24051.17290192 -.00000516  00000-0 -14325-4 0  9993,2 53728  53.2198  14.2978 0001772  82.7213 277.3981 15.08833033 81556,6917.902,95.438,540.993,538.541,0.0
53728.0,STARLINK-4640,PAYLOAD,2024-02-20 21:38:12,15.08841708,0.0001562,53.2194,11.0262,92.2483,267.8688,3.2938e-05,2.36e-06,0.0,0 STARLINK-4640,1 53728U 22107AE  24051.90153518  .00000236  00000-0  32938-4 0  9991,2 53728  53.2194  11.0262 0001562  92.2483 267.8688 15.08841708 81663,6917.875,95.437,540.821,538.66,0.0
53728.0,STARLINK-4640,PAYLOAD,2024-02-21 03:59:44,15.08849452,0.000151,53.2186,9.8372,87.6417,272.4748,0.00014559,2.03e-05,0.0,0 STARLINK-4640,1 53728U 22107AE  24052.16648834  .00002030  00000-0  14559-3 0  9992,2 53728  53.2186   9.8372 0001510  87.6417 272.4748 15.08849452 81101,6917.851,95.437,540.761,538.672,0.0
53728.0,STARLINK-4640,PAYLOAD,2024-02-21 13:32:03,15.08845663,0.0001465,53.2193,8.052,90.0874,270.0286,-1.9781e-05,-6.03e-06,0.0,0 STARLINK-4640,1 53728U 22107AE  24052.56393213 -.00000603  00000-0 -19781-4 0  9993,2 53728  53.2193   8.0520 0001465  90.0874 270.0286 15.08845663 81762,6917.863,95.437,540.742,538.715,0.0
53728.0,STARLINK-4640,PAYLOAD,2024-02-22 03:50:32,15.0883309,0.0001576,53.2192,5.3765,93.4164,266.7008,2.7467e-05,1.49e-06,0.0,0 STARLINK-4640,1 53728U 22107AE  24053.16010100  .00000149  00000-0  27467-4 0  9994,2 53728  53.2192   5.3765 0001576  93.4164 266.7008 15.08833090 81253,6917.902,95.438,540.857,538.676,0.0
53728.0,STARLINK-4640,PAYLOAD,2024-02-22 13:22:51,15.08840458,0.0001414,53.2189,3.5904,86.6264,273.489,7.8394e-05,9.6e-06,0.0,0 STARLINK-4640,1 53728U 22107AE  24053.55753716  .00000960  00000-0  78394-4 0  9990,2 53728  53.2189   3.5904 0001414  86.6264 273.4890 15.08840458 81913,6917.879,95.438,540.722,538.766,0.0
53728.0,STARLINK-4640,PAYLOAD,2024-02-23 13:13:38,15.08846596,0.000144,53.2188,359.1318,84.6575,275.4582,4.621e-05,4.48e-06,0.0,0 STARLINK-4640,1 53728U 22107AE  24054.55113475  .00000448  00000-0  46210-4 0  9996,2 53728  53.2188 359.1318 0001440  84.6575 275.4582 15.08846596 82069,6917.86,95.437,540.721,538.729,0.0
53728.0,STARLINK-4640,PAYLOAD,2024-02-24 03:32:07,15.08834638,0.0001448,53.2199,356.4591,90.9943,269.1215,2.7199e-05,1.45e-06,0.0,0 STARLINK-4640,1 53728U 22107AE  24055.14730716  .00000145  00000-0  27199-4 0  9994,2 53728  53.2199 356.4591 0001448  90.9943 269.1215 15.08834638 81551,6917.897,95.438,540.763,538.76,0.0
53728.0,STARLINK-4640,PAYLOAD,2024-02-24 13:04:26,15.08837292,0.0001375,53.2201,354.67,84.7143,275.4006,4.1338e-05,3.7e-06,0.0,0 STARLINK-4640,1 53728U 22107AE  24055.54474586  .00000370  00000-0  41338-4 0  9999,2 53728  53.2201 354.6700 0001375  84.7143 275.4006 15.08837292 82210,6917.889,95.438,540.705,538.802,0.0
53728.0,STARLINK-4640,PAYLOAD,2024-02-25 04:58:16,15.08846246,0.0001411,53.2195,351.6949,89.4497,270.6657,9.8624e-05,1.282e-05,0.0,0 STARLINK-4640,1 53728U 22107AE  24056.20713995  .00001282  00000-0  98624-4 0  9996,2 53728  53.2195 351.6949 0001411  89.4497 270.6657 15.08846246 81711,6917.861,95.437,540.702,538.75,0.0
53728.0,STARLINK-4640,PAYLOAD,2024-02-25 12:55:12,15.08847338,0.000123,53.2198,350.2082,99.3381,260.775,1.9513e-05,2.3e-07,0.0,0 STARLINK-4640,1 53728U 22107AE  24056.53833935  .00000023  00000-0  19513-4 0  9991,2 53728  53.2198 350.2082 0001230  99.3381 260.7750 15.08847338 82367,6917.858,95.437,540.574,538.872,0.0
53728.0,STARLINK-4640,PAYLOAD,2024-02-26 04:49:02,15.0885923,0.0001321,53.2185,347.2333,91.5312,268.5831,0.00021798,3.185e-05,0.0,0 STARLINK-4640,1 53728U 22107AE  24057.20072781  .00003185  00000-0  21798-3 0  9999,2 53728  53.2185 347.2333 0001321  91.5312 268.5831 15.08859230 81861,6917.822,95.436,540.6,538.773,0.0
53728.0,STARLINK-4640,PAYLOAD,2024-02-26 19:07:32,15.08834942,0.0001049,53.2195,344.5596,91.3367,268.7745,-2.4779e-05,-6.82e-06,0.0,0 STARLINK-4640,1 53728U 22107AE  24057.79690436 -.00000682  00000-0 -24779-4 0  9990,2 53728  53.2195 344.5596 0001049  91.3367 268.7745 15.08834942 81957,6917.896,95.438,540.487,539.035,0.0
53728.0,STARLINK-4640,PAYLOAD,2024-02-26 22:18:18,15.08839886,0.0001491,53.2181,343.9659,101.1339,258.9821,3.8628e-05,3.27e-06,0.0,0 STARLINK-4640,1 53728U 22107AE  24057.92938200  .00000327  00000-0  38628-4 0  9991,2 53728  53.2181 343.9659 0001491 101.1339 258.9821 15.08839886 82572,6917.881,95.438,540.777,538.714,0.0
53728.0,STARLINK-4640,PAYLOAD,2024-02-27 01:29:04,15.08846494,0.0001578,53.2191,343.3725,94.6746,265.4426,-6.4655e-05,-1.317e-05,0.0,0 STARLINK-4640,1 53728U 22107AE  24058.06185973 -.00001317  00000-0 -64655-4 0  9999,2 53728  53.2191 343.3725 0001578  94.6746 265.4426 15.08846494 81997,6917.861,95.437,540.817,538.634,0.0
53728.0,STARLINK-4640,PAYLOAD,2024-02-27 04:39:50,15.08848142,0.0001487,53.2186,342.7761,90.582,269.5343,7.9708e-06,-1.61e-06,0.0,0 STARLINK-4640,1 53728U 22107AE  24058.19433837 -.00000161  00000-0  79708-5 0  9999,2 53728  53.2186 342.7761 0001487  90.5820 269.5343 15.08848142 82616,6917.856,95.437,540.749,538.692,0.0
53728.0,STARLINK-4640,PAYLOAD,2024-02-27 22:09:05,15.08838334,0.0001525,53.2166,339.5031,104.6517,255.4644,-1.9128e-05,-5.92e-06,0.0,0 STARLINK-4640,1 53728U 22107AE  24058.92298332 -.00000592  00000-0 -19128-4 0  9997,2 53728  53.2166 339.5031 0001525 104.6517 255.4644 15.08838334 82723,6917.885,95.438,540.805,538.696,0.0
53728.0,STARLINK-4640,PAYLOAD,2024-02-27 23:44:28,15.08839407,0.0001576,53.2189,339.2101,99.5561,260.561,1.7779e-05,-5e-08,0.0,0 STARLINK-4640,1 53728U 22107AE  24058.98922353 -.00000005  00000-0  17779-4 0  9998,2 53728  53.2189 339.2101 0001576  99.5561 260.5610 15.08839407 82137,6917.882,95.438,540.837,538.657,0.0
